KUIPER-00044            
1 64505U 25134F   25246.83335648  .00011173  00000+0  14940-2 0  9996
2 64505  51.8999 352.8817 0014120  16.9815  11.4131 14.79824305  5419
KUIPER-00046            
1 64506U 25134G   25246.83335648 -.00745253  00000+0 -86018-1 0  9996
2 64506  51.9035 349.5088 0012387  28.7017 251.3907 14.87835930  4615
KUIPER-00047            
1 64507U 25134H   25246.55174249  .00050677  00000+0  14589-2 0  9996
2 64507  51.8636 343.8362 0011457  28.0750 332.0851 15.35203962 12317
KUIPER-00048            
1 64508U 25134J   25246.26092617  .00080189  00000+0  21257-2 0  9994
2 64508  51.8789 344.2585 0005578  14.1904 345.9238 15.37611597 12280
KUIPER-00049            
1 64509U 25134K   25246.83335648 -.00434545  00000+0 -15944-1 0  9998
2 64509  51.8741 342.1768 0008508  20.6671 293.4778 15.29265316  5517
KUIPER-00050            
1 64510U 25134L   25246.83335648 -.00577859  00000+0 -25413-1 0  9998
2 64510  51.8763 342.8020 0007800  29.0349 350.4371 15.23566463  5536
KUIPER-00051            
1 64511U 25134M   25246.83335648 -.00100309  00000+0 -31861-2 0  9996
2 64511  51.8754 342.1560 0007303   2.1577 310.1138 15.32407962  5578
KUIPER-00052            
1 64512U 25134N   25246.24587726  .00224724  00000+0  30663-2 0  9993
2 64512  51.8766 339.7325 0007376  28.5273 331.6125 15.56169584 12346
